{
    "links": {
        "self": "http://www.neowsapp.com/rest/v1/neo/3825160?api_key=iIulBulltgU6a56xZRHN4H3l9WmuAYTsLGpBGhQ2"
    },
    "id": "3825160",
    "neo_reference_id": "3825160",
    "name": "(2018 LQ3)",
    "designation": "2018 LQ3",
    "nasa_jpl_url": "http://ssd.jpl.nasa.gov/sbdb.cgi?sstr=3825160",
    "absolute_magnitude_h": 22.3,
    "estimated_diameter": {
        "kilometers": {
            "estimated_diameter_min": 0.0921626549,
            "estimated_diameter_max": 0.2060819612
        },
        "meters": {
            "estimated_diameter_min": 92.1626548503,
            "estimated_diameter_max": 206.0819612321
        },
        "miles": {
            "estimated_diameter_min": 0.057267201,
            "estimated_diameter_max": 0.1280533543
        },
        "feet": {
            "estimated_diameter_min": 302.370924539,
            "estimated_diameter_max": 676.1219416887
        }
    },
    "is_potentially_hazardous_asteroid": false,
    "close_approach_data": [
        {
            "close_approach_date": "2018-06-11",
            "close_approach_date_full": "2018-Jun-11 10:56",
            "epoch_date_close_approach": 1528714560000,
            "relative_velocity": {
                "kilometers_per_second": "21.0360983832",
                "kilometers_per_hour": "75729.9541794332",
                "miles_per_hour": "47055.6484733262"
            },
            "miss_distance": {
                "astronomical": "0.0312268414",
                "lunar": "12.1472413046",
                "kilometers": "4671468.960267818",
                "miles": "2902716.2111711684"
            },
            "orbiting_body": "Earth"
        }
    ],
    "orbital_data": {
        "orbit_id": "7",
        "orbit_determination_date": "2018-07-01 06:28:00",
        "first_observation_date": "2018-06-10",
        "last_observation_date": "2018-06-22",
        "data_arc_in_days": 12,
        "observations_used": 131,
        "orbit_uncertainty": "8",
        "minimum_orbit_intersection": ".0185423",
        "jupiter_tisserand_invariant": "3.913",
        "epoch_osculation": "2458282.5",
        "eccentricity": ".4264624480047779",
        "semi_major_axis": "1.688217303648824",
        "inclination": "36.24573716461853",
        "ascending_node_longitude": "258.5787184081654",
        "orbital_period": "801.2000133519514",
        "perihelion_distance": ".9682560195707212",
        "perihelion_argument": "38.29155630480517",
        "aphelion_distance": "2.408178587726927",
        "perihelion_time": "2458313.095082545682",
        "mean_anomaly": "346.2528338331327",
        "mean_motion": ".449326003495533",
        "equinox": "J2000",
        "orbit_class": {
            "orbit_class_type": "APO",
            "orbit_class_description": "Near-Earth asteroid orbits which cross the Earth’s orbit similar to that of 1862 Apollo",
            "orbit_class_range": "a (semi-major axis) > 1.0 AU; q (perihelion) < 1.017 AU"
        }
    },
    "is_sentry_object": false
}